NORAD_CAT_ID,OBJECT_NAME,OBJECT_TYPE,EPOCH,MEAN_MOTION,ECCENTRICITY,INCLINATION,RA_OF_ASC_NODE,ARG_OF_PERICENTER,MEAN_ANOMALY,BSTAR,MEAN_MOTION_DOT,MEAN_MOTION_DDOT,TLE_LINE0,TLE_LINE1,TLE_LINE2,SEMIMAJOR_AXIS,PERIOD,APOGEE,PERIGEE,DECAYED
53784.0,STARLINK-4687,PAYLOAD,2023-04-06 05:22:46,15.08849554,0.00013,53.2187,30.6841,95.7846,264.3295,0.00011831,1.596e-05,0.0,0 STARLINK-4687,1 53784U 22111M   23096.22414938  .00001596  00000-0  11831-3 0  9995,2 53784  53.2187  30.6841 0001300  95.7846 264.3295 15.08849554 32397,6917.851,95.437,540.616,538.817,0.0
53784.0,STARLINK-4687,PAYLOAD,2023-04-06 19:41:15,15.0883852,0.0001774,53.2188,28.0064,100.5499,259.5693,5.9793e-05,6.64e-06,0.0,0 STARLINK-4687,1 53784U 22111M   23096.82031756  .00000664  00000-0  59793-4 0  9999,2 53784  53.2188  28.0064 0001774 100.5499 259.5693 15.08838520 31679,6917.885,95.438,540.977,538.523,0.0
53784.0,STARLINK-4687,PAYLOAD,2023-04-07 05:13:34,15.08843296,0.0001271,53.2188,26.2252,86.1704,273.9434,6.6048e-05,7.64e-06,0.0,0 STARLINK-4687,1 53784U 22111M   23097.21775507  .00000764  00000-0  66048-4 0  9994,2 53784  53.2188  26.2252 0001271  86.1704 273.9434 15.08843296 32544,6917.87,95.437,540.615,538.856,0.0
53784.0,STARLINK-4687,PAYLOAD,2023-04-08 03:28:57,15.08851445,0.0001149,53.218,22.0628,82.9448,277.1674,0.00016458,2.333e-05,0.0,0 STARLINK-4687,1 53784U 22111M   23098.14511102  .00002333  00000-0  16458-3 0  9999,2 53784  53.2180  22.0628 0001149  82.9448 277.1674 15.08851445 31872,6917.845,95.437,540.505,538.916,0.0
53784.0,STARLINK-4687,PAYLOAD,2023-04-08 05:04:20,15.08852796,0.000117,53.218,21.7652,83.2899,276.8227,0.00017853,2.556e-05,0.0,0 STARLINK-4687,1 53784U 22111M   23098.21134959  .00002556  00000-0  17853-3 0  9995,2 53784  53.2180  21.7652 0001170  83.2899 276.8227 15.08852796 32694,6917.841,95.437,540.516,538.897,0.0
53784.0,STARLINK-4687,PAYLOAD,2023-04-08 19:22:49,15.08837996,0.0001169,53.2179,19.088,97.7498,262.3627,2.3099e-05,8e-07,0.0,0 STARLINK-4687,1 53784U 22111M   23098.80751782  .00000080  00000-0  23099-4 0  9999,2 53784  53.2179  19.0880 0001169  97.7498 262.3627 15.08837996 31977,6917.887,95.438,540.56,538.943,0.0
53784.0,STARLINK-4687,PAYLOAD,2023-04-09 03:19:45,15.08840781,0.0001023,53.2181,17.6005,80.8988,279.212,4.9417e-05,4.99e-06,0.0,0 STARLINK-4687,1 53784U 22111M   23099.13871706  .00000499  00000-0  49417-4 0  9991,2 53784  53.2181  17.6005 0001023  80.8988 279.2120 15.08840781 32836,6917.878,95.438,540.451,539.035,0.0
53784.0,STARLINK-4687,PAYLOAD,2023-04-09 19:13:36,15.08840269,0.0001069,53.2185,14.6303,80.0596,280.0517,-5.3826e-05,-1.144e-05,0.0,0 STARLINK-4687,1 53784U 22111M   23099.80111959 -.00001144  00000-0 -53826-4 0  9991,2 53784  53.2185  14.6303 0001069  80.0596 280.0517 15.08840269 32937,6917.88,95.438,540.484,539.005,0.0
53784.0,STARLINK-4687,PAYLOAD,2023-04-10 04:45:55,15.08850884,0.0001099,53.218,12.8447,86.1337,273.9781,0.00011774,1.587e-05,0.0,0 STARLINK-4687,1 53784U 22111M   23100.19855353  .00001587  00000-0  11774-3 0  9993,2 53784  53.2180  12.8447 0001099  86.1337 273.9781 15.08850884 32189,6917.847,95.437,540.472,538.952,0.0
53784.0,STARLINK-4687,PAYLOAD,2023-04-11 03:01:19,15.08848904,0.0001122,53.2182,8.681,86.093,274.0191,0.0002167,3.163e-05,0.0,0 STARLINK-4687,1 53784U 22111M   23101.12591486  .00003163  00000-0  21670-3 0  9999,2 53784  53.2182   8.6810 0001122  86.0930 274.0191 15.08848904 32326,6917.853,95.437,540.494,538.942,0.0
53784.0,STARLINK-4687,PAYLOAD,2023-04-12 01:16:43,15.08835902,0.0001177,53.2179,4.5181,85.1373,274.9754,-2.8617e-05,-7.43e-06,0.0,0 STARLINK-4687,1 53784U 22111M   23102.05328521 -.00000743  00000-0 -28617-4 0  9992,2 53784  53.2179   4.5181 0001177  85.1373 274.9754 15.08835902 33272,6917.893,95.438,540.572,538.944,0.0
53784.0,STARLINK-4687,PAYLOAD,2023-04-12 23:32:07,15.08842915,0.0001136,53.2185,0.3574,92.6684,267.4438,9.2311e-05,1.182e-05,0.0,0 STARLINK-4687,1 53784U 22111M   23102.98064546  .00001182  00000-0  92311-4 0  9996,2 53784  53.2185   0.3574 0001136  92.6684 267.4438 15.08842915 33416,6917.871,95.437,540.522,538.951,0.0
53784.0,STARLINK-4687,PAYLOAD,2023-04-14 02:33:40,15.08855174,0.00011,53.2178,355.3,86.1079,274.0039,0.00038493,5.846e-05,0.0,0 STARLINK-4687,1 53784U 22111M   23104.10672099  .00005846  00000-0  38493-3 0  9991,2 53784  53.2178 355.3000 0001100  86.1079 274.0039 15.08855174 32772,6917.834,95.437,540.46,538.938,0.0
53784.0,STARLINK-4687,PAYLOAD,2023-04-15 00:49:04,15.08849177,0.0001125,53.2179,351.1394,82.367,277.745,0.00014083,1.955e-05,0.0,0 STARLINK-4687,1 53784U 22111M   23105.03408081  .00001955  00000-0  14083-3 0  9998,2 53784  53.2179 351.1394 0001125  82.3670 277.7450 15.08849177 33724,6917.852,95.437,540.496,538.939,0.0
53784.0,STARLINK-4687,PAYLOAD,2023-04-15 21:29:05,15.08842341,0.0001228,53.218,347.2754,96.002,264.1113,2.1256e-05,5e-07,0.0,0 STARLINK-4687,1 53784U 22111M   23105.89520243  .00000050  00000-0  21256-4 0  9993,2 53784  53.2180 347.2754 0001228  96.0020 264.1113 15.08842341 33853,6917.873,95.437,540.588,538.889,0.0
53784.0,STARLINK-4687,PAYLOAD,2023-04-16 02:15:14,15.08853469,0.0001095,53.2174,346.3802,96.8417,263.27,0.00041063,6.256e-05,0.0,0 STARLINK-4687,1 53784U 22111M   23106.09391689  .00006256  00000-0  41063-3 0  9997,2 53784  53.2174 346.3802 0001095  96.8417 263.2700 15.08853469 33079,6917.839,95.437,540.462,538.947,0.0
53784.0,STARLINK-4687,PAYLOAD,2023-04-16 19:44:29,15.08830036,9.6e-05,53.2182,343.1136,78.233,281.8769,-6.4402e-05,-1.312e-05,0.0,0 STARLINK-4687,1 53784U 22111M   23106.82256824 -.00001312  00000-0 -64402-4 0  9992,2 53784  53.2182 343.1136 0000960  78.2330 281.8769 15.08830036 33189,6917.911,95.438,540.44,539.112,0.0
53784.0,STARLINK-4687,PAYLOAD,2023-04-16 21:19:52,15.08836831,0.0001113,53.2169,342.81,104.9316,255.1799,5.0491e-05,5.16e-06,0.0,0 STARLINK-4687,1 53784U 22111M   23106.88880444  .00000516  00000-0  50491-4 0  9995,2 53784  53.2169 342.8100 0001113 104.9316 255.1799 15.08836831 34001,6917.89,95.438,540.525,538.985,0.0
53784.0,STARLINK-4687,PAYLOAD,2023-04-17 00:30:38,15.08842866,0.0001164,53.2174,342.2179,114.0533,246.0581,0.00023453,3.447e-05,0.0,0 STARLINK-4687,1 53784U 22111M   23107.02128352  .00003447  00000-0  23453-3 0  9998,2 53784  53.2174 342.2179 0001164 114.0533 246.0581 15.08842866 33211,6917.872,95.437,540.542,538.931,0.0
53784.0,STARLINK-4687,PAYLOAD,2023-04-17 21:10:40,15.08836088,0.0001129,53.2169,338.352,118.7334,241.3771,3.6828e-06,-2.29e-06,0.0,0 STARLINK-4687,1 53784U 22111M   23107.88240993 -.00000229  00000-0  36828-5 0  9996,2 53784  53.2169 338.3520 0001129 118.7334 241.3771 15.08836088 34154,6917.892,95.438,540.538,538.976,0.0
53784.0,STARLINK-4687,PAYLOAD,2023-04-18 00:21:26,15.08838268,0.0001051,53.2168,337.7568,111.9889,248.1215,7.7008e-05,9.38e-06,0.0,0 STARLINK-4687,1 53784U 22111M   23108.01488810  .00000938  00000-0  77008-4 0  9994,2 53784  53.2168 337.7568 0001051 111.9889 248.1215 15.08838268 34174,6917.886,95.438,540.478,539.024,0.0
53784.0,STARLINK-4687,PAYLOAD,2023-04-18 16:15:18,15.08834719,0.0001336,53.2163,334.7827,124.4764,235.6354,0.0003419,5.157e-05,0.0,0 STARLINK-4687,1 53784U 22111M   23108.67729461  .00005157  00000-0  34190-3 0  9998,2 53784  53.2163 334.7827 0001336 124.4764 235.6354 15.08834719 34274,6917.897,95.438,540.686,538.837,0.0
53784.0,STARLINK-4687,PAYLOAD,2023-04-19 00:12:13,15.08845898,0.0001116,53.2159,333.2954,117.3084,242.8022,0.00027588,4.106e-05,0.0,0 STARLINK-4687,1 53784U 22111M   23109.00849036  .00004106  00000-0  27588-3 0  9993,2 53784  53.2159 333.2954 0001116 117.3084 242.8022 15.08845898 33514,6917.862,95.437,540.499,538.955,0.0
53784.0,STARLINK-4687,PAYLOAD,2023-04-19 14:30:42,15.08839576,0.0001013,53.2169,330.6208,95.1455,264.9653,0.00014118,1.96e-05,0.0,0 STARLINK-4687,1 53784U 22111M   23109.60465497  .00001960  00000-0  14118-3 0  9994,2 53784  53.2169 330.6208 0001013  95.1455 264.9653 15.08839576 34410,6917.882,95.438,540.447,539.046,0.0
53784.0,STARLINK-4687,PAYLOAD,2023-04-19 20:52:14,15.08843664,9.95e-05,53.2167,329.4313,98.0744,262.0361,0.00019571,2.829e-05,0.0,0 STARLINK-4687,1 53784U 22111M   23109.86961317  .00002829  00000-0  19571-3 0  9997,2 53784  53.2167 329.4313 0000995  98.0744 262.0361 15.08843664 34454,6917.869,95.437,540.423,539.046,0.0
53784.0,STARLINK-4687,PAYLOAD,2023-04-20 20:43:01,15.08852508,0.0001114,53.2168,324.9724,73.8949,286.2166,-0.00013839,-2.49e-05,0.0,0 STARLINK-4687,1 53784U 22111M   23110.86320895 -.00002490  00000-0 -13839-3 0  9996,2 53784  53.2168 324.9724 0001114  73.8949 286.2166 15.08852508 34608,6917.842,95.437,540.478,538.937,0.0
53784.0,STARLINK-4687,PAYLOAD,2023-04-21 07:50:43,15.08839951,9.93e-05,53.2158,322.8898,79.3535,280.7569,0.0002103,3.061e-05,0.0,0 STARLINK-4687,1 53784U 22111M   23111.32689586  .00003061  00000-0  21030-3 0  9998,2 53784  53.2158 322.8898 0000993  79.3535 280.7569 15.08839951 33862,6917.881,95.438,540.432,539.059,0.0
53784.0,STARLINK-4687,PAYLOAD,2023-04-21 20:33:48,15.08846759,9.62e-05,53.2158,320.5102,87.4937,272.6165,0.00015137,2.123e-05,0.0,0 STARLINK-4687,1 53784U 22111M   23111.85681111  .00002123  00000-0  15137-3 0  9991,2 53784  53.2158 320.5102 0000962  87.4937 272.6165 15.08846759 34752,6917.86,95.437,540.39,539.059,0.0
53784.0,STARLINK-4687,PAYLOAD,2023-04-22 01:19:57,15.08852551,0.0001052,53.2157,319.6183,84.7548,275.3564,0.00022198,3.248e-05,0.0,0 STARLINK-4687,1 53784U 22111M   23112.05552739  .00003248  00000-0  22198-3 0  9991,2 53784  53.2157 319.6183 0001052  84.7548 275.3564 15.08852551 33971,6917.842,95.437,540.435,538.979,0.0
53784.0,STARLINK-4687,PAYLOAD,2023-04-22 20:24:35,15.08842774,0.0001332,53.2161,316.051,84.0544,276.06,6.1679e-05,6.94e-06,0.0,0 STARLINK-4687,1 53784U 22111M   23112.85041296  .00000694  00000-0  61679-4 0  9990,2 53784  53.2161 316.0510 0001332  84.0544 276.0600 15.08842774 34090,6917.872,95.437,540.658,538.815,0.0
